{
  "type": "FeatureCollection",
  "features": [
    {
      "type": "Feature",
      "properties": {
        "norad_id": 52912,
        "name": "GAOFEN-12 03",
        "group": "resource",
        "lat": -1.6961260248626302,
        "lon": 61.71424742253089,
        "alt_km": 634.6187048059874,
        "timestamp": "2025-12-20T18:51:31.375853+00:00",
        "meta_object_name": "GAOFEN-12 03",
        "meta_object_id": "2022-069A",
        "meta_epoch": "2025-12-20T14:47:40.919712",
        "meta_mean_motion": 14.79625807,
        "meta_eccentricity": 0.00019841,
        "meta_inclination": 97.849,
        "meta_ra_of_asc_node": 241.7829,
        "meta_arg_of_pericenter": 53.2721,
        "meta_mean_anomaly": 306.8673,
        "meta_ephemeris_type": 0,
        "meta_classification_type": "U",
        "meta_norad_cat_id": 52912,
        "meta_element_set_no": 999,
        "meta_rev_at_epoch": 18820,
        "meta_bstar": 8.0862506e-05,
        "meta_mean_motion_dot": 5.55e-06,
        "meta_mean_motion_ddot": 0,
        "tle_line1": "1 52912U 22069A   25354.61644583  .00000555  00000+0  80863-4 0  9997",
        "tle_line2": "2 52912  97.8490 241.7829 0001984  53.2721 306.8673 14.79625807188204"
      },
      "geometry": {
        "type": "Point",
        "coordinates": [
          61.71424742253089,
          -1.6961260248626302
        ]
      }
    },
    {
      "type": "Feature",
      "properties": {
        "norad_id": 54754,
        "name": "SWOT",
        "group": "resource",
        "lat": 21.752939562779982,
        "lon": -78.83962482189295,
        "alt_km": 892.6773611654635,
        "timestamp": "2025-12-20T18:51:31.375862+00:00",
        "meta_object_name": "SWOT",
        "meta_object_id": "2022-173A",
        "meta_epoch": "2025-12-20T13:36:28.203840",
        "meta_mean_motion": 14.00167956,
        "meta_eccentricity": 3.529e-05,
        "meta_inclination": 77.6109,
        "meta_ra_of_asc_node": 276.424,
        "meta_arg_of_pericenter": 90.9889,
        "meta_mean_anomaly": 269.1303,
        "meta_ephemeris_type": 0,
        "meta_classification_type": "U",
        "meta_norad_cat_id": 54754,
        "meta_element_set_no": 999,
        "meta_rev_at_epoch": 15415,
        "meta_bstar": 1.0601075e-05,
        "meta_mean_motion_dot": 1.3e-07,
        "meta_mean_motion_ddot": 0,
        "tle_line1": "1 54754U 22173A   25354.56699310  .00000013  00000+0  10601-4 0  9993",
        "tle_line2": "2 54754  77.6109 276.4240 0000352  90.9889 269.1303 14.00167956154154"
      },
      "geometry": {
        "type": "Point",
        "coordinates": [
          -78.83962482189295,
          21.752939562779982
        ]
      }
    },
    {
      "type": "Feature",
      "properties": {
        "norad_id": 57654,
        "name": "GAOFEN-12 04",
        "group": "resource",
        "lat": -6.166171203337594,
        "lon": -88.71801605805557,
        "alt_km": 633.8909409063453,
        "timestamp": "2025-12-20T18:51:31.375872+00:00",
        "meta_object_name": "GAOFEN-12 04",
        "meta_object_id": "2023-123A",
        "meta_epoch": "2025-12-20T15:38:27.408768",
        "meta_mean_motion": 14.79720517,
        "meta_eccentricity": 0.00012273,
        "meta_inclination": 97.9127,
        "meta_ra_of_asc_node": 270.289,
        "meta_arg_of_pericenter": 77.4652,
        "meta_mean_anomaly": 282.6697,
        "meta_ephemeris_type": 0,
        "meta_classification_type": "U",
        "meta_norad_cat_id": 57654,
        "meta_element_set_no": 999,
        "meta_rev_at_epoch": 12622,
        "meta_bstar": 0.0001250866,
        "meta_mean_motion_dot": 8.88e-06,
        "meta_mean_motion_ddot": 0,
        "tle_line1": "1 57654U 23123A   25354.65170612  .00000888  00000+0  12509-3 0  9998",
        "tle_line2": "2 57654  97.9127 270.2890 0001227  77.4652 282.6697 14.79720517126221"
      },
      "geometry": {
        "type": "Point",
        "coordinates": [
          -88.71801605805557,
          -6.166171203337594
        ]
      }
    },
    {
      "type": "Feature",
      "properties": {
        "norad_id": 59065,
        "name": "PARS 1",
        "group": "resource",
        "lat": 4.5012233025556725,
        "lon": -34.70143676737227,
        "alt_km": 439.2341458107294,
        "timestamp": "2025-12-20T18:51:31.375882+00:00",
        "meta_object_name": "PARS 1",
        "meta_object_id": "2024-039Q",
        "meta_epoch": "2025-12-20T14:09:51.152832",
        "meta_mean_motion": 15.41139833,
        "meta_eccentricity": 0.00120463,
        "meta_inclination": 97.4641,
        "meta_ra_of_asc_node": 325.6901,
        "meta_arg_of_pericenter": 48.4162,
        "meta_mean_anomaly": 311.8115,
        "meta_ephemeris_type": 0,
        "meta_classification_type": "U",
        "meta_norad_cat_id": 59065,
        "meta_element_set_no": 999,
        "meta_rev_at_epoch": 10109,
        "meta_bstar": 0.00020245399,
        "meta_mean_motion_dot": 8.319e-05,
        "meta_mean_motion_ddot": 0,
        "tle_line1": "1 59065U 24039Q   25354.59017538  .00008319  00000+0  20245-3 0  9996",
        "tle_line2": "2 59065  97.4641 325.6901 0012046  48.4162 311.8115 15.41139833101091"
      },
      "geometry": {
        "type": "Point",
        "coordinates": [
          -34.70143676737227,
          4.5012233025556725
        ]
      }
    },
    {
      "type": "Feature",
      "properties": {
        "norad_id": 59371,
        "name": "RESURS-P 4",
        "group": "resource",
        "lat": -66.83201761454525,
        "lon": 103.6301888020319,
        "alt_km": 477.3757768441237,
        "timestamp": "2025-12-20T18:51:31.375892+00:00",
        "meta_object_name": "RESURS-P 4",
        "meta_object_id": "2024-061A",
        "meta_epoch": "2025-12-20T14:38:42.309888",
        "meta_mean_motion": 15.32142646,
        "meta_eccentricity": 9.989e-05,
        "meta_inclination": 97.2557,
        "meta_ra_of_asc_node": 300.779,
        "meta_arg_of_pericenter": 62.07,
        "meta_mean_anomaly": 298.0644,
        "meta_ephemeris_type": 0,
        "meta_classification_type": "U",
        "meta_norad_cat_id": 59371,
        "meta_element_set_no": 999,
        "meta_rev_at_epoch": 9641,
        "meta_bstar": 9.1916907e-05,
        "meta_mean_motion_dot": 2.776e-05,
        "meta_mean_motion_ddot": 0,
        "tle_line1": "1 59371U 24061A   25354.61021192  .00002776  00000+0  91917-4 0  9991",
        "tle_line2": "2 59371  97.2557 300.7790 0000998  62.0700 298.0644 15.32142646 96416"
      },
      "geometry": {
        "type": "Point",
        "coordinates": [
          103.6301888020319,
          -66.83201761454525
        ]
      }
    },
    {
      "type": "Feature",
      "properties": {
        "norad_id": 59625,
        "name": "LEGION 1",
        "group": "resource",
        "lat": 21.721088110645287,
        "lon": 66.33894272966396,
        "alt_km": 516.624485996319,
        "timestamp": "2025-12-20T18:51:31.375902+00:00",
        "meta_object_name": "LEGION 1",
        "meta_object_id": "2024-081A",
        "meta_epoch": "2025-12-20T12:25:41.437344",
        "meta_mean_motion": 15.16549324,
        "meta_eccentricity": 0.00036297,
        "meta_inclination": 97.5208,
        "meta_ra_of_asc_node": 69.0902,
        "meta_arg_of_pericenter": 282.0311,
        "meta_mean_anomaly": 78.0515,
        "meta_ephemeris_type": 0,
        "meta_classification_type": "U",
        "meta_norad_cat_id": 59625,
        "meta_element_set_no": 999,
        "meta_rev_at_epoch": 9045,
        "meta_bstar": 0.00015782886,
        "meta_mean_motion_dot": 3.011e-05,
        "meta_mean_motion_ddot": 0,
        "tle_line1": "1 59625U 24081A   25354.51784071  .00003011  00000+0  15783-3 0  9995",
        "tle_line2": "2 59625  97.5208  69.0902 0003629 282.0311  78.0515 15.16549324 90457"
      },
      "geometry": {
        "type": "Point",
        "coordinates": [
          66.33894272966396,
          21.721088110645287
        ]
      }
    },
    {
      "type": "Feature",
      "properties": {
        "norad_id": 59626,
        "name": "LEGION 2",
        "group": "resource",
        "lat": -21.978831380198756,
        "lon": -113.61294786763135,
        "alt_km": 519.5330080052008,
        "timestamp": "2025-12-20T18:51:31.375912+00:00",
        "meta_object_name": "LEGION 2",
        "meta_object_id": "2024-081B",
        "meta_epoch": "2025-12-20T11:38:08.938752",
        "meta_mean_motion": 15.16563441,
        "meta_eccentricity": 0.00056321,
        "meta_inclination": 97.5212,
        "meta_ra_of_asc_node": 69.1453,
        "meta_arg_of_pericenter": 259.8293,
        "meta_mean_anomaly": 100.2305,
        "meta_ephemeris_type": 0,
        "meta_classification_type": "U",
        "meta_norad_cat_id": 59626,
        "meta_element_set_no": 999,
        "meta_rev_at_epoch": 9045,
        "meta_bstar": 0.0001956519,
        "meta_mean_motion_dot": 3.752e-05,
        "meta_mean_motion_ddot": 0,
        "tle_line1": "1 59626U 24081B   25354.48482568  .00003752  00000+0  19565-3 0  9992",
        "tle_line2": "2 59626  97.5212  69.1453 0005632 259.8293 100.2305 15.16563441 90453"
      },
      "geometry": {
        "type": "Point",
        "coordinates": [
          -113.61294786763135,
          -21.978831380198756
        ]
      }
    }
  ]
}